*******************************************************************************
Ephemeris / WWW_USER Thu Mar  7 10:13:09 2019 Pasadena, USA      / Horizons    
*******************************************************************************
Target body name: SpaceX Roadster (spacecraft) (-143205) {source: tesla_s10}
Center body name: Earth (399)                     {source: DE431mx}
Center-site name: Green Bank (GBT)
*******************************************************************************
Start time      : A.D. 2019-Mar-07 12:30:00.0000 UT      
Stop  time      : A.D. 2019-Mar-07 18:30:00.0000 UT      
Step-size       : 1 minutes
*******************************************************************************
Target pole/equ : No model available
Target radii    : (unavailable)                                                
Center geodetic : 280.160200,38.4330940,0.8760930 {E-lon(deg),Lat(deg),Alt(km)}
Center cylindric: 280.160200,5003.37558,3943.7589 {E-lon(deg),Dxy(km),Dz(km)}
Center pole/equ : High-precision EOP model        {East-longitude positive}
Center radii    : 6378.1 x 6378.1 x 6356.8 km     {Equator, meridian, pole}    
Target primary  : Earth
Vis. interferer : MOON (R_eq= 1737.400) km        {source: DE431mx}
Rel. light bend : Sun, EARTH                      {source: DE431mx}
Rel. lght bnd GM: 1.3271E+11, 3.9860E+05 km^3/s^2                              
Atmos refraction: NO (AIRLESS)
RA format       : HMS
Time format     : CAL 
RTS-only print  : NO       
EOP file        : eop.190306.p190528                                           
EOP coverage    : DATA-BASED 1962-JAN-20 TO 2019-MAR-06. PREDICTS-> 2019-MAY-27
Units conversion: 1 au= 149597870.700 km, c= 299792.458 km/s, 1 day= 86400.0 s 
Table cut-offs 1: Elevation (-90.0deg=NO ),Airmass (>38.000=NO), Daylight (NO )
Table cut-offs 2: Solar elongation (  0.0,180.0=NO ),Local Hour Angle( 0.0=NO )
Table cut-offs 3: RA/DEC angular rate (     0.0=NO )                           
*******************************************************************************************************************
 Date__(UT)__HR:MN     R.A._(ICRF/J2000.0)_DEC dRA*cosD d(DEC)/dt            delta      deldot    S-O-T /r    S-T-O
*******************************************************************************************************************
$$SOE
 2019-Mar-07 13:36 *m  23 50 50.04 -00 27 48.9 94.63319  41.60029 2.43789888624695  -2.2309464  11.2931 /T   7.5581
 2019-Mar-07 13:37 *m  23 50 50.15 -00 27 48.2 94.63032  41.60037 2.43789799154247  -2.2304597  11.2929 /T   7.5580
 2019-Mar-07 13:38 *m  23 50 50.25 -00 27 47.5 94.62746  41.60046 2.43789709703450  -2.2299666  11.2927 /T   7.5578
 2019-Mar-07 13:39 *m  23 50 50.36 -00 27 46.8 94.62460  41.60055 2.43789620272562  -2.2294670  11.2925 /T   7.5577
 2019-Mar-07 13:40 *m  23 50 50.46 -00 27 46.1 94.62174  41.60063 2.43789530861843  -2.2289609  11.2923 /T   7.5576
 2019-Mar-07 13:41 *m  23 50 50.57 -00 27 45.4 94.61890  41.60072 2.43789441471549  -2.2284484  11.2921 /T   7.5575
 2019-Mar-07 13:42 *m  23 50 50.67 -00 27 44.7 94.61605  41.60081 2.43789352101940  -2.2279295  11.2918 /T   7.5573
 2019-Mar-07 13:43 *m  23 50 50.78 -00 27 44.0 94.61321  41.60090 2.43789262753272  -2.2274042  11.2916 /T   7.5572
 2019-Mar-07 13:44 *m  23 50 50.88 -00 27 43.3 94.61038  41.60098 2.43789173425802  -2.2268725  11.2914 /T   7.5571
 2019-Mar-07 13:45 *m  23 50 50.99 -00 27 42.6 94.60755  41.60107 2.43789084119788  -2.2263343  11.2912 /T   7.5569
 2019-Mar-07 13:46 *m  23 50 51.09 -00 27 41.9 94.60473  41.60116 2.43788994835484  -2.2257899  11.2910 /T   7.5568
 2019-Mar-07 13:47 *m  23 50 51.20 -00 27 41.2 94.60192  41.60124 2.43788905573146  -2.2252390  11.2908 /T   7.5567
 2019-Mar-07 13:48 *m  23 50 51.30 -00 27 40.6 94.59911  41.60133 2.43788816333030  -2.2246818  11.2906 /T   7.5565
 2019-Mar-07 13:49 *m  23 50 51.41 -00 27 39.9 94.59630  41.60142 2.43788727115388  -2.2241183  11.2904 /T   7.5564
 2019-Mar-07 13:50 *m  23 50 51.52 -00 27 39.2 94.59351  41.60151 2.43788637920477  -2.2235484  11.2902 /T   7.5563
 2019-Mar-07 13:51 *m  23 50 51.62 -00 27 38.5 94.59071  41.60159 2.43788548748549  -2.2229722  11.2899 /T   7.5562
 2019-Mar-07 13:52 *m  23 50 51.73 -00 27 37.8 94.58793  41.60168 2.43788459599856  -2.2223898  11.2897 /T   7.5560
 2019-Mar-07 13:53 *m  23 50 51.83 -00 27 37.1 94.58515  41.60177 2.43788370474652  -2.2218010  11.2895 /T   7.5559
 2019-Mar-07 13:54 *m  23 50 51.94 -00 27 36.4 94.58237  41.60186 2.43788281373188  -2.2212060  11.2893 /T   7.5558
 2019-Mar-07 13:55 *m  23 50 52.04 -00 27 35.7 94.57960  41.60194 2.43788192295716  -2.2206047  11.2891 /T   7.5556
 2019-Mar-07 13:56 *m  23 50 52.15 -00 27 35.0 94.57684  41.60203 2.43788103242486  -2.2199971  11.2889 /T   7.5555
 2019-Mar-07 13:57 *m  23 50 52.25 -00 27 34.3 94.57409  41.60212 2.43788014213749  -2.2193834  11.2887 /T   7.5554
 2019-Mar-07 13:58 *m  23 50 52.36 -00 27 33.6 94.57134  41.60221 2.43787925209756  -2.2187634  11.2885 /T   7.5552
 2019-Mar-07 13:59 *m  23 50 52.46 -00 27 32.9 94.56859  41.60230 2.43787836230753  -2.2181371  11.2882 /T   7.5551
 2019-Mar-07 14:00 *m  23 50 52.57 -00 27 32.2 94.56586  41.60239 2.43787747276991  -2.2175047  11.2880 /T   7.5550
 2019-Mar-07 14:01 *m  23 50 52.67 -00 27 31.5 94.56313  41.60247 2.43787658348718  -2.2168662  11.2878 /T   7.5549
 2019-Mar-07 14:02 *m  23 50 52.78 -00 27 30.8 94.56040  41.60256 2.43787569446182  -2.2162214  11.2876 /T   7.5547
 2019-Mar-07 14:03 *m  23 50 52.88 -00 27 30.2 94.55769  41.60265 2.43787480569629  -2.2155705  11.2874 /T   7.5546
 2019-Mar-07 14:04 *m  23 50 52.99 -00 27 29.5 94.55498  41.60274 2.43787391719306  -2.2149135  11.2872 /T   7.5545
 2019-Mar-07 14:05 *m  23 50 53.09 -00 27 28.8 94.55227  41.60283 2.43787302895458  -2.2142503  11.2870 /T   7.5543
 2019-Mar-07 14:06 *m  23 50 53.20 -00 27 28.1 94.54958  41.60292 2.43787214098332  -2.2135810  11.2868 /T   7.5542
 2019-Mar-07 14:07 *m  23 50 53.30 -00 27 27.4 94.54688  41.60300 2.43787125328171  -2.2129057  11.2866 /T   7.5541
 2019-Mar-07 14:08 *m  23 50 53.41 -00 27 26.7 94.54420  41.60309 2.43787036585221  -2.2122242  11.2863 /T   7.5540
 2019-Mar-07 14:09 *m  23 50 53.51 -00 27 26.0 94.54153  41.60318 2.43786947869724  -2.2115367  11.2861 /T   7.5538
 2019-Mar-07 14:10 *m  23 50 53.62 -00 27 25.3 94.53886  41.60327 2.43786859181923  -2.2108432  11.2859 /T   7.5537
 2019-Mar-07 14:11 *m  23 50 53.72 -00 27 24.6 94.53619  41.60336 2.43786770522062  -2.2101436  11.2857 /T   7.5536
 2019-Mar-07 14:12 *m  23 50 53.83 -00 27 23.9 94.53354  41.60345 2.43786681890381  -2.2094379  11.2855 /T   7.5534
 2019-Mar-07 14:13 *m  23 50 53.93 -00 27 23.2 94.53089  41.60354 2.43786593287122  -2.2087263  11.2853 /T   7.5533
 2019-Mar-07 14:14 *m  23 50 54.04 -00 27 22.5 94.52825  41.60363 2.43786504712525  -2.2080087  11.2851 /T   7.5532
 2019-Mar-07 14:15 *m  23 50 54.14 -00 27 21.8 94.52561  41.60371 2.43786416166831  -2.2072851  11.2849 /T   7.5530
 2019-Mar-07 14:16 *m  23 50 54.25 -00 27 21.1 94.52299  41.60380 2.43786327650279  -2.2065556  11.2847 /T   7.5529
 2019-Mar-07 14:17 *m  23 50 54.35 -00 27 20.4 94.52037  41.60389 2.43786239163106  -2.2058201  11.2844 /T   7.5528
 2019-Mar-07 14:18 *m  23 50 54.46 -00 27 19.8 94.51776  41.60398 2.43786150705553  -2.2050787  11.2842 /T   7.5527
 2019-Mar-07 14:19 *m  23 50 54.56 -00 27 19.1 94.51515  41.60407 2.43786062277855  -2.2043313  11.2840 /T   7.5525
 2019-Mar-07 14:20 *m  23 50 54.67 -00 27 18.4 94.51255  41.60416 2.43785973880250  -2.2035781  11.2838 /T   7.5524
 2019-Mar-07 14:21 *m  23 50 54.77 -00 27 17.7 94.50997  41.60425 2.43785885512974  -2.2028190  11.2836 /T   7.5523
 2019-Mar-07 14:22 *m  23 50 54.88 -00 27 17.0 94.50738  41.60434 2.43785797176262  -2.2020540  11.2834 /T   7.5521
 2019-Mar-07 14:23 *m  23 50 54.98 -00 27 16.3 94.50481  41.60443 2.43785708870349  -2.2012832  11.2832 /T   7.5520
 2019-Mar-07 14:24 *m  23 50 55.09 -00 27 15.6 94.50224  41.60452 2.43785620595469  -2.2005066  11.2830 /T   7.5519
 2019-Mar-07 14:25 *m  23 50 55.19 -00 27 14.9 94.49968  41.60461 2.43785532351857  -2.1997241  11.2827 /T   7.5518
 2019-Mar-07 14:26 *m  23 50 55.30 -00 27 14.2 94.49713  41.60470 2.43785444139744  -2.1989358  11.2825 /T   7.5516
 2019-Mar-07 14:27 *m  23 50 55.40 -00 27 13.5 94.49459  41.60479 2.43785355959363  -2.1981418  11.2823 /T   7.5515
 2019-Mar-07 14:28 *m  23 50 55.51 -00 27 12.8 94.49205  41.60488 2.43785267810945  -2.1973420  11.2821 /T   7.5514
 2019-Mar-07 14:29 *m  23 50 55.61 -00 27 12.1 94.48953  41.60497 2.43785179694722  -2.1965365  11.2819 /T   7.5512
 2019-Mar-07 14:30 *m  23 50 55.72 -00 27 11.4 94.48701  41.60506 2.43785091610922  -2.1957252  11.2817 /T   7.5511
 2019-Mar-07 14:31 *m  23 50 55.82 -00 27 10.7 94.48450  41.60515 2.43785003559777  -2.1949082  11.2815 /T   7.5510
 2019-Mar-07 14:32 *m  23 50 55.93 -00 27 10.0 94.48199  41.60524 2.43784915541514  -2.1940855  11.2813 /T   7.5509
 2019-Mar-07 14:33 *m  23 50 56.03 -00 27 09.4 94.47950  41.60533 2.43784827556362  -2.1932571  11.2811 /T   7.5507
 2019-Mar-07 14:34 *m  23 50 56.14 -00 27 08.7 94.47701  41.60542 2.43784739604548  -2.1924231  11.2808 /T   7.5506
 2019-Mar-07 14:35 *m  23 50 56.24 -00 27 08.0 94.47453  41.60551 2.43784651686299  -2.1915835  11.2806 /T   7.5505
 2019-Mar-07 14:36 *m  23 50 56.35 -00 27 07.3 94.47206  41.60560 2.43784563801840  -2.1907382  11.2804 /T   7.5503
 2019-Mar-07 14:37 *m  23 50 56.45 -00 27 06.6 94.46960  41.60569 2.43784475951397  -2.1898873  11.2802 /T   7.5502
 2019-Mar-07 14:38 *m  23 50 56.56 -00 27 05.9 94.46715  41.60578 2.43784388135195  -2.1890308  11.2800 /T   7.5501
 2019-Mar-07 14:39 *m  23 50 56.66 -00 27 05.2 94.46470  41.60587 2.43784300353457  -2.1881687  11.2798 /T   7.5499
 2019-Mar-07 14:40 *m  23 50 56.77 -00 27 04.5 94.46227  41.60596 2.43784212606406  -2.1873011  11.2796 /T   7.5498
 2019-Mar-07 14:41 *m  23 50 56.87 -00 27 03.8 94.45984  41.60605 2.43784124894264  -2.1864280  11.2794 /T   7.5497
